{
  "norad_id": 47179,
  "name": "STARLINK-1913",
  "history": [
    {
      "epoch": "2026-03-28T16:20:49.845408Z",
      "apogee_km": 475.98054690695153,
      "perigee_km": 474.3885203146938,
      "latitude_deg": -5.2719117055335126e-05,
      "longitude_deg": 147.53588088309377,
      "height_km": 476.18897223146126,
      "semi_major_axis_km": 6853.321533610822,
      "eccentricity": 0.00011615,
      "inclination_deg": 53.1596,
      "raan_deg": 218.8417,
      "arg_perigee_deg": 97.6695,
      "mean_anomaly_deg": 262.4437,
      "mean_motion_rev_day": 15.30210227
    },
    {
      "epoch": "2026-03-28T21:02:58.966368Z",
      "apogee_km": 475.8708839247647,
      "perigee_km": 474.42758184412014,
      "latitude_deg": 1.6970511197623704e-06,
      "longitude_deg": 75.89289115721454,
      "height_km": 476.19143844883354,
      "semi_major_axis_km": 6853.286232884442,
      "eccentricity": 0.0001053,
      "inclination_deg": 53.158,
      "raan_deg": 217.9298,
      "arg_perigee_deg": 101.5116,
      "mean_anomaly_deg": 258.6003,
      "mean_motion_rev_day": 15.3022205
    }
  ]
}